{"version": 0.6, "generator": "Overpass API 0.7.61.5 4133829e", "osm3s": {"timestamp_osm_base": "2023-11-24T11:12:08Z", "copyright": "The data included in this document is from www.openstreetmap.org. The data is made available under ODbL."}, "elements": [{"type": "node", "id": 250224485, "lat": 52.3726582, "lon": 4.8352937, "tags": {"name": "Jan van Galenstraat", "network": "Amsterdamse metro", "operator": "GVB", "public_transport": "station", "railway": "station", "start_date": "1997-05-28", "station": "subway", "subway": "yes", "wheelchair": "yes", "wikidata": "Q3273303", "wikipedia": "nl:Jan van Galenstraat (metrostation)", "zone": "5713"}}, {"type": "node", "id": 46430209, "lat": 52.380159, "lon": 4.8236527, "tags": {"amenity": "parking", "name": "S207", "source": "survey", "wheelchair": "yes"}}, {"type": "node", "id": 5864891195, "lat": 52.3785015, "lon": 4.8283022, "tags": {"amenity": "drinking_water", "bottle": "yes", "operator": "Waternet", "operator:wikidata": "Q2137469", "operator:wikipedia": "nl:Waternet (bedrijf)", "wheelchair": "yes"}}, {"type": "node", "id": 6072956840, "lat": 52.3634414, "lon": 4.8230543, "tags": {"amenity": "drinking_water", "bottle": "yes", "operator": "Waternet", "operator:wikidata": "Q2137469", "wheelchair": "yes"}}, {"type": "node", "id": 6072984318, "lat": 52.3699783, "lon": 4.8302471, "tags": {"amenity": "drinking_water", "bottle": "yes", "operator": "Waternet", "operator:wikidata": "Q2137469", "wheelchair": "yes"}}, {"type": "node", "id": 6434029813, "lat": 52.3715147, "lon": 4.8201255, "tags": {"amenity": "drinking_water", "fee": "no", "operator": "Waternet", "operator:wikidata": "Q2137469", "wheelchair": "yes"}}, {"type": "node", "id": 6468197558, "lat": 52.3742837, "lon": 4.8125378, "tags": {"amenity": "drinking_water", "bottle": "yes", "operator": "Waternet", "operator:wikidata": "Q2137469", "operator:wikipedia": "nl:Waternet (bedrijf)"}}, {"type": "node", "id": 6468216385, "lat": 52.3788688, "lon": 4.8246023, "tags": {"amenity": "drinking_water", "bottle": "yes", "operator": "Waternet", "operator:wikidata": "Q2137469", "operator:wikipedia": "nl:Waternet (bedrijf)"}}, {"type": "node", "id": 6468419347, "lat": 52.3690946, "lon": 4.8315485, "tags": {"amenity": "drinking_water", "bottle": "yes", "operator": "Waternet", "operator:wikidata": "Q2137469"}}, {"type": "node", "id": 6468419349, "lat": 52.367937, "lon": 4.8324895, "tags": {"amenity": "drinking_water", "bottle": "yes", "fountain": "drinking", "operator": "Waternet", "operator:wikidata": "Q2137469"}}, {"type": "node", "id": 6072956841, "lat": 52.3634905, "lon": 4.8228928, "tags": {"amenity": "bench"}}, {"type": "node", "id": 9043427817, "lat": 52.3655243, "lon": 4.8150067, "tags": {"amenity": "bench"}}, {"type": "node", "id": 10820365984, "lat": 52.3789571, "lon": 4.8143614, "tags": {"amenity": "bench"}}, {"type": "node", "id": 10820366016, "lat": 52.3789472, "lon": 4.8142927, "tags": {"amenity": "bench"}}, {"type": "node", "id": 10891946860, "lat": 52.3774326, "lon": 4.8285054, "tags": {"amenity": "bench"}}, {"type": "node", "id": 10891946883, "lat": 52.3774038, "lon": 4.8286768, "tags": {"amenity": "bench"}}, {"type": "node", "id": 10891946885, "lat": 52.3774568, "lon": 4.8284557, "tags": {"amenity": "bench"}}, {"type": "node", "id": 10891999808, "lat": 52.378153, "lon": 4.824206, "tags": {"amenity": "bench"}}, {"type": "node", "id": 10892009822, "lat": 52.3777499, "lon": 4.8321992, "tags": {"amenity": "bench"}}, {"type": "node", "id": 10892009828, "lat": 52.3777117, "lon": 4.8322071, "tags": {"amenity": "bench"}}, {"type": "node", "id": 10922917644, "lat": 52.3782156, "lon": 4.8285183, "tags": {"amenity": "bench", "artwork_type": "sculpture", "tourism": "artwork"}}, {"type": "node", "id": 10922917655, "lat": 52.3783048, "lon": 4.8260413, "tags": {"amenity": "bench"}}, {"type": "node", "id": 10924060994, "lat": 52.3779389, "lon": 4.8283728, "tags": {"amenity": "bench"}}, {"type": "node", "id": 10924060995, "lat": 52.3782178, "lon": 4.8285331, "tags": {"amenity": "bench"}}, {"type": "node", "id": 10931843390, "lat": 52.3656977, "lon": 4.8249937, "tags": {"amenity": "bench"}}, {"type": "node", "id": 10931843391, "lat": 52.3657028, "lon": 4.8250616, "tags": {"amenity": "bench"}}, {"type": "node", "id": 10931867045, "lat": 52.3666476, "lon": 4.8240633, "tags": {"amenity": "bench"}}, {"type": "node", "id": 10931867046, "lat": 52.366496, "lon": 4.8242332, "tags": {"amenity": "bench"}}, {"type": "node", "id": 10931867047, "lat": 52.3664727, "lon": 4.8241976, "tags": {"amenity": "bench"}}, {"type": "node", "id": 10931867226, "lat": 52.3634829, "lon": 4.8229157, "tags": {"amenity": "bench"}}, {"type": "node", "id": 10934108367, "lat": 52.3689269, "lon": 4.8291845, "tags": {"amenity": "bench", "backrest": "yes"}}, {"type": "node", "id": 10934108368, "lat": 52.3690788, "lon": 4.8293124, "tags": {"amenity": "bench", "backrest": "yes"}}, {"type": "node", "id": 10934108369, "lat": 52.3692334, "lon": 4.8294387, "tags": {"amenity": "bench"}}, {"type": "node", "id": 10934108370, "lat": 52.3693827, "lon": 4.8295575, "tags": {"amenity": "bench"}}, {"type": "node", "id": 10934108371, "lat": 52.3695358, "lon": 4.8296892, "tags": {"amenity": "bench"}}, {"type": "node", "id": 10934108501, "lat": 52.3675601, "lon": 4.8262176, "tags": {"amenity": "bench", "backrest": "yes"}}, {"type": "node", "id": 10934108506, "lat": 52.3669148, "lon": 4.8264986, "tags": {"amenity": "bench"}}, {"type": "node", "id": 11160756926, "lat": 52.3679287, "lon": 4.8347029, "tags": {"amenity": "bench"}}, {"type": "node", "id": 11160792228, "lat": 52.3675579, "lon": 4.8346896, "tags": {"amenity": "bench"}}, {"type": "node", "id": 11160798722, "lat": 52.3671169, "lon": 4.8346688, "tags": {"amenity": "bench"}}, {"type": "node", "id": 11160801169, "lat": 52.3683833, "lon": 4.834754, "tags": {"amenity": "bench"}}, {"type": "node", "id": 11160803837, "lat": 52.3685913, "lon": 4.8347988, "tags": {"amenity": "bench"}}, {"type": "node", "id": 11160805152, "lat": 52.3681287, "lon": 4.8347153, "tags": {"amenity": "bench"}}]}